{"fetched_at":"2026-03-30T06:02:59Z","count":15439,"tles":[{"name":"2024-092D","line1":"1 59776U 24092D   26087.87202690  .00023887  00000+0  72810-3 0  9996","line2":"2 59776  97.6446 217.8693 0008169  81.3404 278.8763 15.33930079103423","category":"Other"}]}